ONEWEB-0126             
1 47272U 20100Q   24087.88412791 -.00000200  00000+0 -59115-3 0  9993
2 47272  87.9000 152.1375 0002021 106.5241 253.6110 13.12440315158282
ONEWEB-0127             
1 47273U 20100R   24087.92146333  .00000252  00000+0  66546-3 0  9996
2 47273  87.9004 152.1553 0002030 105.8576 254.2777 13.12445185158318
ONEWEB-0128             
1 47274U 20100S   24087.86744647  .00000392  00000+0  10550-2 0  9990
2 47274  87.9010 152.1647 0001668 102.7808 257.3507 13.12441708158323
ONEWEB-0129             
1 47275U 20100T   24087.92306216  .00000337  00000+0  90255-3 0  9994
2 47275  87.9003 152.1256 0003032 132.6363 227.5021 13.12444499158260
ONEWEB-0130             
1 47276U 20100U   24088.18035679  .00000202  00000+0  52593-3 0  9990
2 47276  87.9001 152.0841 0001882 105.4558 254.6779 13.12443077158265
ONEWEB-0131             
1 47277U 20100V   24088.17718428  .00000289  00000+0  76857-3 0  9994
2 47277  87.9004 152.0972 0001848 101.3876 258.7460 13.12441916158301
ONEWEB-0132             
1 47278U 20100W   24088.20575511 -.00000390  00000+0 -11183-2 0  9998
2 47278  87.9005 152.0932 0001927  94.7010 265.4339 13.12441978158209
ONEWEB-0133             
1 47279U 20100X   24087.91669672 -.00000013  00000+0 -70416-4 0  9996
2 47279  87.9000 152.1536 0001878  99.4473 260.6868 13.12442876158321
